NORAD_CAT_ID,OBJECT_NAME,OBJECT_TYPE,EPOCH,MEAN_MOTION,ECCENTRICITY,INCLINATION,RA_OF_ASC_NODE,ARG_OF_PERICENTER,MEAN_ANOMALY,BSTAR,MEAN_MOTION_DOT,MEAN_MOTION_DDOT,TLE_LINE0,TLE_LINE1,TLE_LINE2,SEMIMAJOR_AXIS,PERIOD,APOGEE,PERIGEE,DECAYED
51135.0,STARLINK-3363,PAYLOAD,2024-08-19 04:19:04,15.08831602,0.0001178,53.2169,326.7476,76.5324,283.5799,-1.1453e-05,-4.7e-06,0.0,0 STARLINK-3363,1 51135U 22005AH  24232.17991483 -.00000470  00000-0 -11453-4 0  9990,2 51135  53.2169 326.7476 0001178  76.5324 283.5799 15.08831602144176,6917.906,95.438,540.586,538.956,0.0
51135.0,STARLINK-3363,PAYLOAD,2024-08-19 13:51:23,15.08834528,0.0001435,53.2165,324.9631,94.1465,265.9691,-1.4154e-05,-5.13e-06,0.0,0 STARLINK-3363,1 51135U 22005AH  24232.57735549 -.00000513  00000-0 -14154-4 0  9992,2 51135  53.2165 324.9631 0001435  94.1465 265.9691 15.08834528143111,6917.897,95.438,540.755,538.769,0.0
51135.0,STARLINK-3363,PAYLOAD,2024-08-20 12:06:47,15.08851695,0.0001377,53.216,320.7999,95.5159,264.5991,0.00064847,0.00010051,0.0,0 STARLINK-3363,1 51135U 22005AH  24233.50471361  .00010051  00000-0  64847-3 0  9994,2 51135  53.2160 320.7999 0001377  95.5159 264.5991 15.08851695144378,6917.845,95.437,540.662,538.757,0.0
51135.0,STARLINK-3363,PAYLOAD,2024-08-20 13:42:10,15.08858357,0.0001385,53.216,320.5026,94.8251,265.2899,0.0010264,0.00016093,0.0,0 STARLINK-3363,1 51135U 22005AH  24233.57095321  .00016093  00000-0  10264-2 0  9994,2 51135  53.2160 320.5026 0001385  94.8251 265.2899 15.08858357143265,6917.824,95.436,540.647,538.731,0.0
51135.0,STARLINK-3363,PAYLOAD,2024-08-21 11:57:34,15.08852511,0.0001309,53.2157,316.3395,138.0563,222.053,0.00061476,9.513e-05,0.0,0 STARLINK-3363,1 51135U 22005AH  24234.49831130  .00009513  00000-0  61476-3 0  9993,2 51135  53.2157 316.3395 0001309 138.0563 222.0530 15.08852511144525,6917.842,95.437,540.613,538.802,0.0
51135.0,STARLINK-3363,PAYLOAD,2024-08-21 15:08:20,15.08847357,0.0001267,53.2158,315.7449,125.5675,234.5435,0.00047962,7.355e-05,0.0,0 STARLINK-3363,1 51135U 22005AH  24234.63079276  .00007355  00000-0  47962-3 0  9990,2 51135  53.2158 315.7449 0001267 125.5675 234.5435 15.08847357143429,6917.858,95.437,540.599,538.846,0.0
